{
 "generated_at": "2026-07-24T07:31:19Z",
 "sources": [
  {
   "name": "CelesTrak",
   "url": "https://celestrak.org/NORAD/elements/",
   "license": "frei verfügbar; Attribution. Ursprünglich USSPACECOM/Space-Track."
  },
  {
   "name": "GCAT (J. McDowell, planet4589.org)",
   "url": "https://planet4589.org/space/gcat/",
   "license": "CC-BY 4.0"
  }
 ],
 "satellites": [
  {
   "norad": 60542,
   "name": "QPS-SAR-8 (AMATERU-IV)",
   "intl": "2024-149CC",
   "group": "sar",
   "gcat": {
    "class": "B",
    "category": "IMG-R",
    "owner": "QPS",
    "state": "J"
   },
   "omm": {
    "OBJECT_NAME": "QPS-SAR-8 (AMATERU-IV)",
    "OBJECT_ID": "2024-149CC",
    "EPOCH": "2026-07-23T15:29:10.446720",
    "MEAN_MOTION": 15.04449652,
    "ECCENTRICITY": 0.0002674,
    "INCLINATION": 97.664,
    "RA_OF_ASC_NODE": 283.4931,
    "ARG_OF_PERICENTER": 9.8331,
    "MEAN_ANOMALY": 350.2947,
    "EPHEMERIS_TYPE": 0,
    "CLASSIFICATION_TYPE": "U",
    "NORAD_CAT_ID": 60542,
    "ELEMENT_SET_NO": 999,
    "REV_AT_EPOCH": 10575,
    "BSTAR": 0.00040949,
    "MEAN_MOTION_DOT": 0.00005666,
    "MEAN_MOTION_DDOT": 0
   }
  },
  {
   "norad": 63205,
   "name": "QPS-SAR-9 (SUSANOO-I)",
   "intl": "2025-050A",
   "group": "sar",
   "gcat": {
    "class": "B",
    "category": "IMG-R",
    "owner": "QPS",
    "state": "J"
   },
   "omm": {
    "OBJECT_NAME": "QPS-SAR-9 (SUSANOO-I)",
    "OBJECT_ID": "2025-050A",
    "EPOCH": "2026-07-23T19:02:15.038304",
    "MEAN_MOTION": 15.03450355,
    "ECCENTRICITY": 0.0004074,
    "INCLINATION": 42.019,
    "RA_OF_ASC_NODE": 259.9087,
    "ARG_OF_PERICENTER": 16.0786,
    "MEAN_ANOMALY": 344.017,
    "EPHEMERIS_TYPE": 0,
    "CLASSIFICATION_TYPE": "U",
    "NORAD_CAT_ID": 63205,
    "ELEMENT_SET_NO": 999,
    "REV_AT_EPOCH": 7447,
    "BSTAR": 0.00035412,
    "MEAN_MOTION_DOT": 0.00004718,
    "MEAN_MOTION_DDOT": 0
   }
  },
  {
   "norad": 32382,
   "name": "RADARSAT-2",
   "intl": "2007-061A",
   "group": "resource",
   "gcat": {
    "class": "C",
    "category": "IMG-R",
    "owner": "CSA",
    "state": "CA"
   },
   "omm": {
    "OBJECT_NAME": "RADARSAT-2",
    "OBJECT_ID": "2007-061A",
    "EPOCH": "2026-07-23T20:13:10.766208",
    "MEAN_MOTION": 14.29980909,
    "ECCENTRICITY": 0.0001322,
    "INCLINATION": 98.5795,
    "RA_OF_ASC_NODE": 211.2521,
    "ARG_OF_PERICENTER": 87.2851,
    "MEAN_ANOMALY": 272.8483,
    "EPHEMERIS_TYPE": 0,
    "CLASSIFICATION_TYPE": "U",
    "NORAD_CAT_ID": 32382,
    "ELEMENT_SET_NO": 999,
    "REV_AT_EPOCH": 97119,
    "BSTAR": 0.000034921,
    "MEAN_MOTION_DOT": 4.6e-7,
    "MEAN_MOTION_DDOT": 0
   }
  },
  {
   "norad": 37791,
   "name": "RASAT",
   "intl": "2011-044D",
   "group": "resource",
   "gcat": {
    "class": null,
    "category": null,
    "owner": null,
    "state": null
   },
   "omm": {
    "OBJECT_NAME": "RASAT",
    "OBJECT_ID": "2011-044D",
    "EPOCH": "2026-07-23T20:27:30.676032",
    "MEAN_MOTION": 14.68199978,
    "ECCENTRICITY": 0.002197,
    "INCLINATION": 98.0574,
    "RA_OF_ASC_NODE": 295.6903,
    "ARG_OF_PERICENTER": 77.1867,
    "MEAN_ANOMALY": 32.2166,
    "EPHEMERIS_TYPE": 0,
    "CLASSIFICATION_TYPE": "U",
    "NORAD_CAT_ID": 37791,
    "ELEMENT_SET_NO": 999,
    "REV_AT_EPOCH": 79856,
    "BSTAR": 0.00013673,
    "MEAN_MOTION_DOT": 0.00000741,
    "MEAN_MOTION_DDOT": 0
   }
  },
  {
   "norad": 44322,
   "name": "RCM-1",
   "intl": "2019-033A",
   "group": "sar",
   "gcat": {
    "class": "C",
    "category": "IMG-R",
    "owner": "CSA",
    "state": "CA"
   },
   "omm": {
    "OBJECT_NAME": "RCM-1",
    "OBJECT_ID": "2019-033A",
    "EPOCH": "2026-07-23T21:27:20.283264",
    "MEAN_MOTION": 14.92586448,
    "ECCENTRICITY": 0.0001521,
    "INCLINATION": 97.7606,
    "RA_OF_ASC_NODE": 211.8228,
    "ARG_OF_PERICENTER": 91.4226,
    "MEAN_ANOMALY": 26.4968,
    "EPHEMERIS_TYPE": 0,
    "CLASSIFICATION_TYPE": "U",
    "NORAD_CAT_ID": 44322,
    "ELEMENT_SET_NO": 999,
    "REV_AT_EPOCH": 38755,
    "BSTAR": 0.00006096,
    "MEAN_MOTION_DOT": 0.00000571,
    "MEAN_MOTION_DDOT": 0
   }
  },
  {
   "norad": 44324,
   "name": "RCM-2",
   "intl": "2019-033C",
   "group": "sar",
   "gcat": {
    "class": "C",
    "category": "IMG-R",
    "owner": "CSA",
    "state": "CA"
   },
   "omm": {
    "OBJECT_NAME": "RCM-2",
    "OBJECT_ID": "2019-033C",
    "EPOCH": "2026-07-23T20:23:45.422592",
    "MEAN_MOTION": 14.92587707,
    "ECCENTRICITY": 0.0001498,
    "INCLINATION": 97.7604,
    "RA_OF_ASC_NODE": 211.8241,
    "ARG_OF_PERICENTER": 89.496,
    "MEAN_ANOMALY": 270.6431,
    "EPHEMERIS_TYPE": 0,
    "CLASSIFICATION_TYPE": "U",
    "NORAD_CAT_ID": 44324,
    "ELEMENT_SET_NO": 999,
    "REV_AT_EPOCH": 38755,
    "BSTAR": 0.000073708,
    "MEAN_MOTION_DOT": 0.00000702,
    "MEAN_MOTION_DDOT": 0
   }
  },
  {
   "norad": 44323,
   "name": "RCM-3",
   "intl": "2019-033B",
   "group": "sar",
   "gcat": {
    "class": "C",
    "category": "IMG-R",
    "owner": "CSA",
    "state": "CA"
   },
   "omm": {
    "OBJECT_NAME": "RCM-3",
    "OBJECT_ID": "2019-033B",
    "EPOCH": "2026-07-23T19:51:46.819008",
    "MEAN_MOTION": 14.92586209,
    "ECCENTRICITY": 0.0001547,
    "INCLINATION": 97.7605,
    "RA_OF_ASC_NODE": 211.8518,
    "ARG_OF_PERICENTER": 89.8537,
    "MEAN_ANOMALY": 270.286,
    "EPHEMERIS_TYPE": 0,
    "CLASSIFICATION_TYPE": "U",
    "NORAD_CAT_ID": 44323,
    "ELEMENT_SET_NO": 999,
    "REV_AT_EPOCH": 38756,
    "BSTAR": 0.000019395,
    "MEAN_MOTION_DOT": 0.00000144,
    "MEAN_MOTION_DDOT": 0
   }
  },
  {
   "norad": 37387,
   "name": "RESOURCESAT-2",
   "intl": "2011-015A",
   "group": "resource",
   "gcat": {
    "class": null,
    "category": "IMG",
    "owner": "ISRO",
    "state": "IN"
   },
   "omm": {
    "OBJECT_NAME": "RESOURCESAT-2",
    "OBJECT_ID": "2011-015A",
    "EPOCH": "2026-07-23T19:53:34.633248",
    "MEAN_MOTION": 14.21601014,
    "ECCENTRICITY": 0.0012021,
    "INCLINATION": 98.7625,
    "RA_OF_ASC_NODE": 272.0137,
    "ARG_OF_PERICENTER": 147.3783,
    "MEAN_ANOMALY": 212.8139,
    "EPHEMERIS_TYPE": 0,
    "CLASSIFICATION_TYPE": "U",
    "NORAD_CAT_ID": 37387,
    "ELEMENT_SET_NO": 999,
    "REV_AT_EPOCH": 79138,
    "BSTAR": 0.000043555,
    "MEAN_MOTION_DOT": 5.1e-7,
    "MEAN_MOTION_DDOT": 0
   }
  },
  {
   "norad": 41877,
   "name": "RESOURCESAT-2A",
   "intl": "2016-074A",
   "group": "resource",
   "gcat": {
    "class": "C",
    "category": "IMG",
    "owner": "ISRO",
    "state": "IN"
   },
   "omm": {
    "OBJECT_NAME": "RESOURCESAT-2A",
    "OBJECT_ID": "2016-074A",
    "EPOCH": "2026-07-23T19:27:00.351936",
    "MEAN_MOTION": 14.21610569,
    "ECCENTRICITY": 0.000187,
    "INCLINATION": 98.7512,
    "RA_OF_ASC_NODE": 278.0125,
    "ARG_OF_PERICENTER": 7.5055,
    "MEAN_ANOMALY": 352.615,
    "EPHEMERIS_TYPE": 0,
    "CLASSIFICATION_TYPE": "U",
    "NORAD_CAT_ID": 41877,
    "ELEMENT_SET_NO": 999,
    "REV_AT_EPOCH": 49950,
    "BSTAR": 0.000063346,
    "MEAN_MOTION_DOT": 9.5e-7,
    "MEAN_MOTION_DDOT": 0
   }
  },
  {
   "norad": 29228,
   "name": "RESURS-DK 1",
   "intl": "2006-021A",
   "group": "resource",
   "gcat": {
    "class": null,
    "category": null,
    "owner": null,
    "state": null
   },
   "omm": {
    "OBJECT_NAME": "RESURS-DK 1",
    "OBJECT_ID": "2006-021A",
    "EPOCH": "2026-07-23T07:47:10.675104",
    "MEAN_MOTION": 15.13340824,
    "ECCENTRICITY": 0.0007572,
    "INCLINATION": 69.9299,
    "RA_OF_ASC_NODE": 245.9974,
    "ARG_OF_PERICENTER": 262.5212,
    "MEAN_ANOMALY": 97.5094,
    "EPHEMERIS_TYPE": 0,
    "CLASSIFICATION_TYPE": "U",
    "NORAD_CAT_ID": 29228,
    "ELEMENT_SET_NO": 999,
    "REV_AT_EPOCH": 10804,
    "BSTAR": 0.000095009,
    "MEAN_MOTION_DOT": 0.00001589,
    "MEAN_MOTION_DDOT": 0
   }
  }
 ]
}
